{
  "type": "FeatureCollection",
  "features": [
    {
      "type": "Feature",
      "properties": {
        "norad_id": 43823,
        "name": "GEO-KOMPSAT-2A",
        "group": "weather",
        "lat": -0.01987640432867665,
        "lon": -16.80382490857822,
        "alt_km": 35787.078681138635,
        "timestamp": "2025-12-11T08:58:26.757161+00:00",
        "meta_object_name": "GEO-KOMPSAT-2A",
        "meta_object_id": "2018-100A",
        "meta_epoch": "2025-12-10T22:42:45.873792",
        "meta_mean_motion": 1.00269356,
        "meta_eccentricity": 6.2e-06,
        "meta_inclination": 0.0425,
        "meta_ra_of_asc_node": 144.1976,
        "meta_arg_of_pericenter": 1.8887,
        "meta_mean_anomaly": 42.7761,
        "meta_ephemeris_type": 0,
        "meta_classification_type": "U",
        "meta_norad_cat_id": 43823,
        "meta_element_set_no": 999,
        "meta_rev_at_epoch": 2574,
        "meta_bstar": 0,
        "meta_mean_motion_dot": -3.39e-06,
        "meta_mean_motion_ddot": 0,
        "tle_line1": "1 43823U 18100A   25344.94636428 -.00000339  00000+0  00000+0 0  9994",
        "tle_line2": "2 43823   0.0425 144.1976 0000062   1.8887  42.7761  1.00269356 25742"
      },
      "geometry": {
        "type": "Point",
        "coordinates": [
          -16.80382490857822,
          -0.01987640432867665
        ]
      }
    },
    {
      "type": "Feature",
      "properties": {
        "norad_id": 44387,
        "name": "METEOR-M2 2",
        "group": "weather",
        "lat": -35.388526005556784,
        "lon": 138.69682532747927,
        "alt_km": 816.7472000198186,
        "timestamp": "2025-12-11T08:58:26.757172+00:00",
        "meta_object_name": "METEOR-M2 2",
        "meta_object_id": "2019-038A",
        "meta_epoch": "2025-12-11T04:35:31.751808",
        "meta_mean_motion": 14.24290766,
        "meta_eccentricity": 0.0001197,
        "meta_inclination": 98.8974,
        "meta_ra_of_asc_node": 324.901,
        "meta_arg_of_pericenter": 150.5142,
        "meta_mean_anomaly": 209.6104,
        "meta_ephemeris_type": 0,
        "meta_classification_type": "U",
        "meta_norad_cat_id": 44387,
        "meta_element_set_no": 999,
        "meta_rev_at_epoch": 33453,
        "meta_bstar": 0.00016369,
        "meta_mean_motion_dot": 3.32e-06,
        "meta_mean_motion_ddot": 0,
        "tle_line1": "1 44387U 19038A   25345.19133972  .00000332  00000+0  16369-3 0  9996",
        "tle_line2": "2 44387  98.8974 324.9010 0001197 150.5142 209.6104 14.24290766334539"
      },
      "geometry": {
        "type": "Point",
        "coordinates": [
          138.69682532747927,
          -35.388526005556784
        ]
      }
    },
    {
      "type": "Feature",
      "properties": {
        "norad_id": 47719,
        "name": "ARKTIKA-M 1",
        "group": "weather",
        "lat": 61.31898147527111,
        "lon": -163.28878367156565,
        "alt_km": 37046.595611593286,
        "timestamp": "2025-12-11T08:58:26.757191+00:00",
        "meta_object_name": "ARKTIKA-M 1",
        "meta_object_id": "2021-016A",
        "meta_epoch": "2025-12-09T14:03:23.859648",
        "meta_mean_motion": 2.00631311,
        "meta_eccentricity": 0.7202538,
        "meta_inclination": 63.1769,
        "meta_ra_of_asc_node": 84.4506,
        "meta_arg_of_pericenter": 269.1116,
        "meta_mean_anomaly": 15.6235,
        "meta_ephemeris_type": 0,
        "meta_classification_type": "U",
        "meta_norad_cat_id": 47719,
        "meta_element_set_no": 999,
        "meta_rev_at_epoch": 3498,
        "meta_bstar": 0,
        "meta_mean_motion_dot": -6.1e-07,
        "meta_mean_motion_ddot": 0,
        "tle_line1": "1 47719U 21016A   25343.58569282 -.00000061  00000+0  00000+0 0  9996",
        "tle_line2": "2 47719  63.1769  84.4506 7202538 269.1116  15.6235  2.00631311 34985"
      },
      "geometry": {
        "type": "Point",
        "coordinates": [
          -163.28878367156565,
          61.31898147527111
        ]
      }
    },
    {
      "type": "Feature",
      "properties": {
        "norad_id": 49008,
        "name": "FENGYUN 3E",
        "group": "weather",
        "lat": -16.648610968729812,
        "lon": 163.2719757992748,
        "alt_km": 830.4956132192083,
        "timestamp": "2025-12-11T08:58:26.757204+00:00",
        "meta_object_name": "FENGYUN 3E",
        "meta_object_id": "2021-062A",
        "meta_epoch": "2025-12-11T04:40:04.387008",
        "meta_mean_motion": 14.19880279,
        "meta_eccentricity": 5.75e-05,
        "meta_inclination": 98.7477,
        "meta_ra_of_asc_node": 345.7337,
        "meta_arg_of_pericenter": 277.801,
        "meta_mean_anomaly": 82.3101,
        "meta_ephemeris_type": 0,
        "meta_classification_type": "U",
        "meta_norad_cat_id": 49008,
        "meta_element_set_no": 999,
        "meta_rev_at_epoch": 22990,
        "meta_bstar": 0.00013314,
        "meta_mean_motion_dot": 2.39e-06,
        "meta_mean_motion_ddot": 0,
        "tle_line1": "1 49008U 21062A   25345.19449522  .00000239  00000+0  13314-3 0  9995",
        "tle_line2": "2 49008  98.7477 345.7337 0000575 277.8010  82.3101 14.19880279229905"
      },
      "geometry": {
        "type": "Point",
        "coordinates": [
          163.2719757992748,
          -16.648610968729812
        ]
      }
    },
    {
      "type": "Feature",
      "properties": {
        "norad_id": 51850,
        "name": "GOES 18",
        "group": "weather",
        "lat": 0.0009539006338906496,
        "lon": 77.94800877029175,
        "alt_km": 35787.927181217994,
        "timestamp": "2025-12-11T08:58:26.757215+00:00",
        "meta_object_name": "GOES 18",
        "meta_object_id": "2022-021A",
        "meta_epoch": "2025-12-11T04:43:38.646048",
        "meta_mean_motion": 1.00271937,
        "meta_eccentricity": 7e-05,
        "meta_inclination": 0.0195,
        "meta_ra_of_asc_node": 157.0095,
        "meta_arg_of_pericenter": 150.9748,
        "meta_mean_anomaly": 66.0866,
        "meta_ephemeris_type": 0,
        "meta_classification_type": "U",
        "meta_norad_cat_id": 51850,
        "meta_element_set_no": 999,
        "meta_rev_at_epoch": 470,
        "meta_bstar": 0,
        "meta_mean_motion_dot": 1.03e-06,
        "meta_mean_motion_ddot": 0,
        "tle_line1": "1 51850U 22021A   25345.19697507  .00000103  00000+0  00000+0 0  9991",
        "tle_line2": "2 51850   0.0195 157.0095 0000700 150.9748  66.0866  1.00271937  4707"
      },
      "geometry": {
        "type": "Point",
        "coordinates": [
          77.94800877029175,
          0.0009539006338906496
        ]
      }
    },
    {
      "type": "Feature",
      "properties": {
        "norad_id": 54234,
        "name": "NOAA 21 (JPSS-2)",
        "group": "weather",
        "lat": -24.698792935780364,
        "lon": 97.6391592400975,
        "alt_km": 834.0501190785326,
        "timestamp": "2025-12-11T08:58:26.757226+00:00",
        "meta_object_name": "NOAA 21 (JPSS-2)",
        "meta_object_id": "2022-150A",
        "meta_epoch": "2025-12-11T02:56:13.042752",
        "meta_mean_motion": 14.19523527,
        "meta_eccentricity": 0.0002274,
        "meta_inclination": 98.746,
        "meta_ra_of_asc_node": 281.4508,
        "meta_arg_of_pericenter": 41.108,
        "meta_mean_anomaly": 319.0267,
        "meta_ephemeris_type": 0,
        "meta_classification_type": "U",
        "meta_norad_cat_id": 54234,
        "meta_element_set_no": 999,
        "meta_rev_at_epoch": 15986,
        "meta_bstar": 0.00010144,
        "meta_mean_motion_dot": 1.7e-06,
        "meta_mean_motion_ddot": 0,
        "tle_line1": "1 54234U 22150A   25345.12237318  .00000170  00000+0  10144-3 0  9994",
        "tle_line2": "2 54234  98.7460 281.4508 0002274  41.1080 319.0267 14.19523527159867"
      },
      "geometry": {
        "type": "Point",
        "coordinates": [
          97.6391592400975,
          -24.698792935780364
        ]
      }
    },
    {
      "type": "Feature",
      "properties": {
        "norad_id": 54743,
        "name": "METEOSAT-12 (MTG-I1)",
        "group": "weather",
        "lat": -0.1499044577012696,
        "lon": -145.3114060708709,
        "alt_km": 35781.62425937449,
        "timestamp": "2025-12-11T08:58:26.757239+00:00",
        "meta_object_name": "METEOSAT-12 (MTG-I1)",
        "meta_object_id": "2022-170C",
        "meta_epoch": "2025-12-11T03:14:13.816032",
        "meta_mean_motion": 1.00268535,
        "meta_eccentricity": 0.0001807,
        "meta_inclination": 0.6851,
        "meta_ra_of_asc_node": 23.3256,
        "meta_arg_of_pericenter": 236.6793,
        "meta_mean_anomaly": 228.4159,
        "meta_ephemeris_type": 0,
        "meta_classification_type": "U",
        "meta_norad_cat_id": 54743,
        "meta_element_set_no": 999,
        "meta_rev_at_epoch": 1109,
        "meta_bstar": 0,
        "meta_mean_motion_dot": -2e-08,
        "meta_mean_motion_ddot": 0,
        "tle_line1": "1 54743U 22170C   25345.13488213 -.00000002  00000+0  00000+0 0  9995",
        "tle_line2": "2 54743   0.6851  23.3256 0001807 236.6793 228.4159  1.00268535 11090"
      },
      "geometry": {
        "type": "Point",
        "coordinates": [
          -145.3114060708709,
          -0.1499044577012696
        ]
      }
    }
  ]
}